start=new Date('2022-09-20T00:00:00.000Z').valueOf();
sats=[{"MEAN_MOTION_DOT":"0.00007141","OBJECT_ID":"2021-018AA","CLASSIFICATION_TYPE":"U","MEAN_ELEMENT_THEORY":"SGP4","MEAN_MOTION":"15.06421642","PERIOD":"95.591","REV_AT_EPOCH":"8558","DECAY_DATE":null,"RCS_SIZE":"LARGE","OBJECT_NAME":"STARLINK-2392","ELEMENT_SET_NO":"999","COUNTRY_CODE":"US","BSTAR":"0.00049750000000","FILE":"3578049","INCLINATION":"53.0539","NORAD_CAT_ID":"47811","APOAPSIS":"548.205","EPHEMERIS_TYPE":"0","TLE_LINE1":"1 47811U 21018AA  22262.81213328  .00007141  00000-0  49750-3 0  9996","EPOCH":"2022-09-19T19:29:28.315392","PERIAPSIS":"546.090","GP_ID":"213007239","LAUNCH_DATE":"2021-03-11","CENTER_NAME":"EARTH","MEAN_MOTION_DDOT":"0.0000000000000","OBJECT_TYPE":"PAYLOAD","RA_OF_ASC_NODE":"158.8602","ECCENTRICITY":"0.00015270","ARG_OF_PERICENTER":"86.1654","SEMIMAJOR_AXIS":"6925.282","TLE_LINE2":"2 47811  53.0539 158.8602 0001527  86.1654 273.9509 15.06421642 85585","MEAN_ANOMALY":"273.9509","REF_FRAME":"TEME","SITE":"AFETR","TIME_SYSTEM":"UTC"},{"TLE_LINE1":"1 47812U 21018AB  22262.78356478  .00001468  00000-0  11746-3 0  9997","EPHEMERIS_TYPE":"0","PERIAPSIS":"546.183","LAUNCH_DATE":"2021-03-11","GP_ID":"213030810","CENTER_NAME":"EARTH","EPOCH":"2022-09-19T18:48:19.996992","MEAN_MOTION_DDOT":"0.0000000000000","TLE_LINE2":"2 47812  53.0538 188.9803 0001498  69.8044 290.3106 15.06397746 85493","SEMIMAJOR_AXIS":"6925.355","MEAN_ANOMALY":"290.3106","REF_FRAME":"TEME","SITE":"AFETR","TIME_SYSTEM":"UTC","RA_OF_ASC_NODE":"188.9803","OBJECT_TYPE":"PAYLOAD","ECCENTRICITY":"0.00014980","ARG_OF_PERICENTER":"69.8044","OBJECT_ID":"2021-018AB","MEAN_MOTION_DOT":"0.00001468","REV_AT_EPOCH":"8549","DECAY_DATE":null,"MEAN_ELEMENT_THEORY":"SGP4","CLASSIFICATION_TYPE":"U","MEAN_MOTION":"15.06397746","PERIOD":"95.592","COUNTRY_CODE":"US","BSTAR":"0.00011746000000","RCS_SIZE":"LARGE","OBJECT_NAME":"STARLINK-2393","ELEMENT_SET_NO":"999","NORAD_CAT_ID":"47812","APOAPSIS":"548.258","FILE":"3578162","INCLINATION":"53.0538"},{"BSTAR":"0.00023904000000","COUNTRY_CODE":"US","OBJECT_NAME":"STARLINK-2394","RCS_SIZE":"LARGE","ELEMENT_SET_NO":"999","APOAPSIS":"548.210","NORAD_CAT_ID":"47813","INCLINATION":"53.0548","FILE":"3578162","OBJECT_ID":"2021-018AC","MEAN_MOTION_DOT":"0.00003281","DECAY_DATE":null,"REV_AT_EPOCH":"8596","PERIOD":"95.592","MEAN_MOTION":"15.06405290","MEAN_ELEMENT_THEORY":"SGP4","CLASSIFICATION_TYPE":"U","MEAN_MOTION_DDOT":"0.0000000000000","TIME_SYSTEM":"UTC","SITE":"AFETR","REF_FRAME":"TEME","TLE_LINE2":"2 47813  53.0548 159.3635 0001462  89.6425 270.4732 15.06405290 85964","SEMIMAJOR_AXIS":"6925.332","MEAN_ANOMALY":"270.4732","ARG_OF_PERICENTER":"89.6425","ECCENTRICITY":"0.00014620","RA_OF_ASC_NODE":"159.3635","OBJECT_TYPE":"PAYLOAD","TLE_LINE1":"1 47813U 21018AC  22262.70155978  .00003281  00000-0  23904-3 0  9996","EPHEMERIS_TYPE":"0","CENTER_NAME":"EARTH","LAUNCH_DATE":"2021-03-11","GP_ID":"213031561","PERIAPSIS":"546.185","EPOCH":"2022-09-19T16:50:14.764992"},{"APOAPSIS":"548.200","NORAD_CAT_ID":"47814","INCLINATION":"53.0526","FILE":"3578162","COUNTRY_CODE":"US","BSTAR":"0.00034792000000","RCS_SIZE":"LARGE","OBJECT_NAME":"STARLINK-2395","ELEMENT_SET_NO":"999","REV_AT_EPOCH":"8571","DECAY_DATE":null,"MEAN_ELEMENT_THEORY":"SGP4","CLASSIFICATION_TYPE":"U","PERIOD":"95.592","MEAN_MOTION":"15.06409714","OBJECT_ID":"2021-018AD","MEAN_MOTION_DOT":"0.00004906","REF_FRAME":"TEME","TLE_LINE2":"2 47814  53.0526 178.6486 0001468  75.0427 285.0724 15.06409714 85717","SEMIMAJOR_AXIS":"6925.319","MEAN_ANOMALY":"285.0724","TIME_SYSTEM":"UTC","SITE":"AFETR","OBJECT_TYPE":"PAYLOAD","RA_OF_ASC_NODE":"178.6486","ECCENTRICITY":"0.00014680","ARG_OF_PERICENTER":"75.0427","MEAN_MOTION_DDOT":"0.0000000000000","GP_ID":"213031812","LAUNCH_DATE":"2021-03-11","PERIAPSIS":"546.167","CENTER_NAME":"EARTH","EPOCH":"2022-09-19T20:35:49.066656","TLE_LINE1":"1 47814U 21018AD  22262.85820679  .00004906  00000-0  34792-3 0  9992","EPHEMERIS_TYPE":"0"},{"EPOCH":"2022-09-19T03:50:39.602112","GP_ID":"213000545","LAUNCH_DATE":"2021-03-11","PERIAPSIS":"546.104","CENTER_NAME":"EARTH","EPHEMERIS_TYPE":"0","TLE_LINE1":"1 47815U 21018AE  22262.16018058  .00002471  00000-0  18471-3 0  9998","OBJECT_TYPE":"PAYLOAD","RA_OF_ASC_NODE":"176.7817","ECCENTRICITY":"0.00016070","ARG_OF_PERICENTER":"69.2956","REF_FRAME":"TEME","MEAN_ANOMALY":"290.8205","TLE_LINE2":"2 47815  53.0552 176.7817 0001607  69.2956 290.8205 15.06398864 85611","SEMIMAJOR_AXIS":"6925.352","TIME_SYSTEM":"UTC","SITE":"AFETR","MEAN_MOTION_DDOT":"0.0000000000000","MEAN_ELEMENT_THEORY":"SGP4","CLASSIFICATION_TYPE":"U","PERIOD":"95.592","MEAN_MOTION":"15.06398864","REV_AT_EPOCH":"8561","DECAY_DATE":null,"MEAN_MOTION_DOT":"0.00002471","OBJECT_ID":"2021-018AE","INCLINATION":"53.0552","FILE":"3577889","APOAPSIS":"548.330","NORAD_CAT_ID":"47815","OBJECT_NAME":"STARLINK-2396","RCS_SIZE":"LARGE","ELEMENT_SET_NO":"999","COUNTRY_CODE":"US","BSTAR":"0.00018471000000"},{"MEAN_MOTION_DDOT":"0.0000000000000","RA_OF_ASC_NODE":"181.7410","OBJECT_TYPE":"PAYLOAD","ARG_OF_PERICENTER":"86.1666","ECCENTRICITY":"0.00014490","MEAN_ANOMALY":"273.9488","TLE_LINE2":"2 47816  53.0533 181.7410 0001449  86.1666 273.9488 15.06415335 85546","SEMIMAJOR_AXIS":"6925.302","REF_FRAME":"TEME","SITE":"AFETR","TIME_SYSTEM":"UTC","EPHEMERIS_TYPE":"0","TLE_LINE1":"1 47816U 21018AF  22262.16894095  .00010787  00000-0  74162-3 0  9990","EPOCH":"2022-09-19T04:03:16.498080","PERIAPSIS":"546.163","LAUNCH_DATE":"2021-03-11","GP_ID":"213000797","CENTER_NAME":"EARTH","RCS_SIZE":"LARGE","OBJECT_NAME":"STARLINK-2399","ELEMENT_SET_NO":"999","COUNTRY_CODE":"US","BSTAR":"0.00074162000000","FILE":"3577889","INCLINATION":"53.0533","NORAD_CAT_ID":"47816","APOAPSIS":"548.170","MEAN_MOTION_DOT":"0.00010787","OBJECT_ID":"2021-018AF","CLASSIFICATION_TYPE":"U","MEAN_ELEMENT_THEORY":"SGP4","MEAN_MOTION":"15.06415335","PERIOD":"95.591","REV_AT_EPOCH":"8554","DECAY_DATE":null},{"ARG_OF_PERICENTER":"64.1688","ECCENTRICITY":"0.00017770","RA_OF_ASC_NODE":"178.9923","OBJECT_TYPE":"PAYLOAD","TIME_SYSTEM":"UTC","SITE":"AFETR","REF_FRAME":"TEME","MEAN_ANOMALY":"295.9484","TLE_LINE2":"2 47817  53.0557 178.9923 0001777  64.1688 295.9484 15.06386390 85632","SEMIMAJOR_AXIS":"6925.390","MEAN_MOTION_DDOT":"0.0000000000000","EPOCH":"2022-09-19T18:49:41.404800","CENTER_NAME":"EARTH","LAUNCH_DATE":"2021-03-11","GP_ID":"213031061","PERIAPSIS":"546.025","EPHEMERIS_TYPE":"0","TLE_LINE1":"1 47817U 21018AG  22262.78450700  .00007546  00000-0  52514-3 0  9996","INCLINATION":"53.0557","FILE":"3578162","APOAPSIS":"548.486","NORAD_CAT_ID":"47817","RCS_SIZE":"LARGE","ELEMENT_SET_NO":"999","OBJECT_NAME":"STARLINK-2400","BSTAR":"0.00052514000000","COUNTRY_CODE":"US","PERIOD":"95.593","MEAN_MOTION":"15.06386390","MEAN_ELEMENT_THEORY":"SGP4","CLASSIFICATION_TYPE":"U","DECAY_DATE":null,"REV_AT_EPOCH":"8563","MEAN_MOTION_DOT":"0.00007546","OBJECT_ID":"2021-018AG"},{"EPOCH":"2022-09-19T19:27:26.550144","PERIAPSIS":"546.316","GP_ID":"213032313","LAUNCH_DATE":"2021-03-11","CENTER_NAME":"EARTH","EPHEMERIS_TYPE":"0","TLE_LINE1":"1 47818U 21018AH  22262.81072396  .00001020  00000-0  87337-4 0  9995","RA_OF_ASC_NODE":"183.8478","OBJECT_TYPE":"PAYLOAD","ECCENTRICITY":"0.00013060","ARG_OF_PERICENTER":"78.6103","MEAN_ANOMALY":"281.5032","TLE_LINE2":"2 47818  53.0551 183.8478 0001306  78.6103 281.5032 15.06397826 85576","SEMIMAJOR_AXIS":"6925.355","REF_FRAME":"TEME","SITE":"AFETR","TIME_SYSTEM":"UTC","MEAN_MOTION_DDOT":"0.0000000000000","MEAN_ELEMENT_THEORY":"SGP4","CLASSIFICATION_TYPE":"U","MEAN_MOTION":"15.06397826","PERIOD":"95.592","REV_AT_EPOCH":"8557","DECAY_DATE":null,"MEAN_MOTION_DOT":"0.00001020","OBJECT_ID":"2021-018AH","FILE":"3578162","INCLINATION":"53.0551","NORAD_CAT_ID":"47818","APOAPSIS":"548.125","RCS_SIZE":"LARGE","ELEMENT_SET_NO":"999","OBJECT_NAME":"STARLINK-2401","COUNTRY_CODE":"US","BSTAR":"0.00008733700000"},{"REF_FRAME":"TEME","TLE_LINE2":"2 47819  53.0550 178.9546 0001624  68.5553 291.5609 15.06400543 85704","SEMIMAJOR_AXIS":"6925.347","MEAN_ANOMALY":"291.5609","TIME_SYSTEM":"UTC","SITE":"AFETR","OBJECT_TYPE":"PAYLOAD","RA_OF_ASC_NODE":"178.9546","ECCENTRICITY":"0.00016240","ARG_OF_PERICENTER":"68.5553","MEAN_MOTION_DDOT":"0.0000000000000","LAUNCH_DATE":"2021-03-11","GP_ID":"213032063","PERIAPSIS":"546.087","CENTER_NAME":"EARTH","EPOCH":"2022-09-19T18:53:36.352320","TLE_LINE1":"1 47819U 21018AJ  22262.78722630  .00000522  00000-0  53921-4 0  9993","EPHEMERIS_TYPE":"0","APOAPSIS":"548.337","NORAD_CAT_ID":"47819","INCLINATION":"53.0550","FILE":"3578162","COUNTRY_CODE":"US","BSTAR":"0.00005392100000","RCS_SIZE":"LARGE","ELEMENT_SET_NO":"999","OBJECT_NAME":"STARLINK-2402","REV_AT_EPOCH":"8570","DECAY_DATE":null,"CLASSIFICATION_TYPE":"U","MEAN_ELEMENT_THEORY":"SGP4","PERIOD":"95.592","MEAN_MOTION":"15.06400543","OBJECT_ID":"2021-018AJ","MEAN_MOTION_DOT":"0.00000522"},{"INCLINATION":"53.0553","FILE":"3578058","APOAPSIS":"548.142","NORAD_CAT_ID":"47820","RCS_SIZE":"LARGE","ELEMENT_SET_NO":"999","OBJECT_NAME":"STARLINK-2403","BSTAR":"0.00011033000000","COUNTRY_CODE":"US","PERIOD":"95.592","MEAN_MOTION":"15.06402442","MEAN_ELEMENT_THEORY":"SGP4","CLASSIFICATION_TYPE":"U","DECAY_DATE":null,"REV_AT_EPOCH":"8517","MEAN_MOTION_DOT":"0.00001362","OBJECT_ID":"2021-018AK","ECCENTRICITY":"0.00013520","ARG_OF_PERICENTER":"85.2293","OBJECT_TYPE":"PAYLOAD","RA_OF_ASC_NODE":"188.7614","TIME_SYSTEM":"UTC","SITE":"AFETR","REF_FRAME":"TEME","TLE_LINE2":"2 47820  53.0553 188.7614 0001352  85.2293 274.8850 15.06402442 85172","SEMIMAJOR_AXIS":"6925.341","MEAN_ANOMALY":"274.8850","MEAN_MOTION_DDOT":"0.0000000000000","EPOCH":"2022-09-19T20:02:38.555808","CENTER_NAME":"EARTH","LAUNCH_DATE":"2021-03-11","GP_ID":"213007391","PERIAPSIS":"546.270","EPHEMERIS_TYPE":"0","TLE_LINE1":"1 47820U 21018AK  22262.83516847  .00001362  00000-0  11033-3 0  9992"}];
